start=new Date('2022-12-11T00:00:00.000Z').valueOf();
sats=[{"REF_FRAME":"TEME","RA_OF_ASC_NODE":"94.0676","MEAN_MOTION":"15.08863851","SEMIMAJOR_AXIS":"6917.807","LAUNCH_DATE":"2022-07-17","TIME_SYSTEM":"UTC","DECAY_DATE":null,"INCLINATION":"53.2200","CLASSIFICATION_TYPE":"U","BSTAR":"-0.00041840000000","GP_ID":"219979352","PERIOD":"95.436","TLE_LINE1":"1 53132U 22083A   22344.63240227 -.00006945  00000-0 -41840-3 0  9996","ARG_OF_PERICENTER":"45.6451","ECCENTRICITY":"0.00019800","MEAN_ELEMENT_THEORY":"SGP4","NORAD_CAT_ID":"53132","FILE":"3688965","MEAN_MOTION_DOT":"-0.00006945","REV_AT_EPOCH":"2231","MEAN_ANOMALY":"314.4703","PERIAPSIS":"538.303","APOAPSIS":"541.042","MEAN_MOTION_DDOT":"0.0000000000000","ELEMENT_SET_NO":"999","EPOCH":"2022-12-10T15:10:39.556128","COUNTRY_CODE":"US","SITE":"AFETR","OBJECT_NAME":"STARLINK-4063","OBJECT_ID":"2022-083A","TLE_LINE2":"2 53132  53.2200  94.0676 0001980  45.6451 314.4703 15.08863851 22318","CENTER_NAME":"EARTH","EPHEMERIS_TYPE":"0","OBJECT_TYPE":"PAYLOAD","RCS_SIZE":"LARGE"},{"ECCENTRICITY":"0.00021050","ARG_OF_PERICENTER":"36.3518","TLE_LINE1":"1 53133U 22083B   22344.71705058  .00019120  00000-0  12158-2 0  9990","PERIOD":"95.437","MEAN_ANOMALY":"323.7617","PERIAPSIS":"538.259","REV_AT_EPOCH":"2231","NORAD_CAT_ID":"53133","FILE":"3688965","MEAN_MOTION_DOT":"0.00019120","MEAN_ELEMENT_THEORY":"SGP4","TIME_SYSTEM":"UTC","LAUNCH_DATE":"2022-07-17","SEMIMAJOR_AXIS":"6917.851","MEAN_MOTION":"15.08849766","RA_OF_ASC_NODE":"93.6746","REF_FRAME":"TEME","GP_ID":"219979965","CLASSIFICATION_TYPE":"U","BSTAR":"0.00121580000000","INCLINATION":"53.2150","DECAY_DATE":null,"EPHEMERIS_TYPE":"0","CENTER_NAME":"EARTH","RCS_SIZE":"LARGE","OBJECT_TYPE":"PAYLOAD","COUNTRY_CODE":"US","EPOCH":"2022-12-10T17:12:33.170112","ELEMENT_SET_NO":"999","MEAN_MOTION_DDOT":"0.0000000000000","APOAPSIS":"541.172","TLE_LINE2":"2 53133  53.2150  93.6746 0002105  36.3518 323.7617 15.08849766 22313","OBJECT_ID":"2022-083B","OBJECT_NAME":"STARLINK-4154","SITE":"AFETR"},{"BSTAR":"0.00000295380000","CLASSIFICATION_TYPE":"U","GP_ID":"219940035","DECAY_DATE":null,"INCLINATION":"53.2177","REF_FRAME":"TEME","RA_OF_ASC_NODE":"94.3074","MEAN_MOTION":"15.08838666","TIME_SYSTEM":"UTC","SEMIMAJOR_AXIS":"6917.884","LAUNCH_DATE":"2022-07-17","MEAN_ELEMENT_THEORY":"SGP4","FILE":"3688378","MEAN_MOTION_DOT":"-0.00000242","NORAD_CAT_ID":"53134","PERIAPSIS":"537.868","MEAN_ANOMALY":"311.7786","REV_AT_EPOCH":"2293","ARG_OF_PERICENTER":"48.3438","PERIOD":"95.438","TLE_LINE1":"1 53134U 22083C   22344.57353233 -.00000242  00000-0  29538-5 0  9998","ECCENTRICITY":"0.00027190","SITE":"AFETR","OBJECT_NAME":"STARLINK-4150","OBJECT_ID":"2022-083C","TLE_LINE2":"2 53134  53.2177  94.3074 0002719  48.3438 311.7786 15.08838666 22939","ELEMENT_SET_NO":"999","APOAPSIS":"541.630","MEAN_MOTION_DDOT":"0.0000000000000","COUNTRY_CODE":"US","EPOCH":"2022-12-10T13:45:53.193312","OBJECT_TYPE":"PAYLOAD","RCS_SIZE":"LARGE","CENTER_NAME":"EARTH","EPHEMERIS_TYPE":"0"},{"EPOCH":"2022-12-10T18:42:38.281536","COUNTRY_CODE":"US","APOAPSIS":"541.572","MEAN_MOTION_DDOT":"0.0000000000000","ELEMENT_SET_NO":"999","TLE_LINE2":"2 53135  53.2171  93.3988 0002648  39.2813 320.8371 15.08841610 23322","OBJECT_NAME":"STARLINK-4023","SITE":"AFETR","OBJECT_ID":"2022-083D","EPHEMERIS_TYPE":"0","CENTER_NAME":"EARTH","RCS_SIZE":"LARGE","OBJECT_TYPE":"PAYLOAD","SEMIMAJOR_AXIS":"6917.875","LAUNCH_DATE":"2022-07-17","TIME_SYSTEM":"UTC","REF_FRAME":"TEME","RA_OF_ASC_NODE":"93.3988","MEAN_MOTION":"15.08841610","DECAY_DATE":null,"INCLINATION":"53.2171","BSTAR":"0.00003073800000","CLASSIFICATION_TYPE":"U","GP_ID":"219979761","ECCENTRICITY":"0.00026480","PERIOD":"95.437","TLE_LINE1":"1 53135U 22083D   22344.77960974  .00000201  00000-0  30738-4 0  9994","ARG_OF_PERICENTER":"39.2813","REV_AT_EPOCH":"2332","PERIAPSIS":"537.909","MEAN_ANOMALY":"320.8371","MEAN_ELEMENT_THEORY":"SGP4","NORAD_CAT_ID":"53135","FILE":"3688965","MEAN_MOTION_DOT":"0.00000201"},{"GP_ID":"219978931","CLASSIFICATION_TYPE":"U","BSTAR":"0.00016342000000","INCLINATION":"53.2171","DECAY_DATE":null,"TIME_SYSTEM":"UTC","LAUNCH_DATE":"2022-07-17","SEMIMAJOR_AXIS":"6917.860","RA_OF_ASC_NODE":"93.7138","MEAN_MOTION":"15.08846795","REF_FRAME":"TEME","PERIAPSIS":"538.074","MEAN_ANOMALY":"315.0433","REV_AT_EPOCH":"2331","FILE":"3688965","NORAD_CAT_ID":"53136","MEAN_MOTION_DOT":"0.00002314","MEAN_ELEMENT_THEORY":"SGP4","ECCENTRICITY":"0.00023860","ARG_OF_PERICENTER":"45.0752","TLE_LINE1":"1 53136U 22083E   22344.70969058  .00002314  00000-0  16342-3 0  9991","PERIOD":"95.437","TLE_LINE2":"2 53136  53.2171  93.7138 0002386  45.0752 315.0433 15.08846795 23313","OBJECT_ID":"2022-083E","SITE":"AFETR","OBJECT_NAME":"STARLINK-4152","COUNTRY_CODE":"US","EPOCH":"2022-12-10T17:01:57.266112","ELEMENT_SET_NO":"999","MEAN_MOTION_DDOT":"0.0000000000000","APOAPSIS":"541.375","RCS_SIZE":"LARGE","OBJECT_TYPE":"PAYLOAD","EPHEMERIS_TYPE":"0","CENTER_NAME":"EARTH"},{"FILE":"3688965","MEAN_MOTION_DOT":"0.00004877","NORAD_CAT_ID":"53137","MEAN_ELEMENT_THEORY":"SGP4","PERIAPSIS":"538.141","MEAN_ANOMALY":"324.6100","REV_AT_EPOCH":"2232","ARG_OF_PERICENTER":"35.5046","PERIOD":"95.438","TLE_LINE1":"1 53137U 22083F   22344.70232858  .00004877  00000-0  32435-3 0  9990","ECCENTRICITY":"0.00023290","GP_ID":"219980360","CLASSIFICATION_TYPE":"U","BSTAR":"0.00032435000000","INCLINATION":"53.2176","DECAY_DATE":null,"RA_OF_ASC_NODE":"93.7542","MEAN_MOTION":"15.08837739","REF_FRAME":"TEME","TIME_SYSTEM":"UTC","LAUNCH_DATE":"2022-07-17","SEMIMAJOR_AXIS":"6917.887","OBJECT_TYPE":"PAYLOAD","RCS_SIZE":"LARGE","CENTER_NAME":"EARTH","EPHEMERIS_TYPE":"0","OBJECT_ID":"2022-083F","SITE":"AFETR","OBJECT_NAME":"STARLINK-4145","TLE_LINE2":"2 53137  53.2176  93.7542 0002329  35.5046 324.6100 15.08837739 22320","ELEMENT_SET_NO":"999","MEAN_MOTION_DDOT":"0.0000000000000","APOAPSIS":"541.363","COUNTRY_CODE":"US","EPOCH":"2022-12-10T16:51:21.189312"},{"EPHEMERIS_TYPE":"0","CENTER_NAME":"EARTH","RCS_SIZE":"LARGE","OBJECT_TYPE":"PAYLOAD","EPOCH":"2022-12-10T16:24:14.498496","COUNTRY_CODE":"US","APOAPSIS":"541.305","MEAN_MOTION_DDOT":"0.0000000000000","ELEMENT_SET_NO":"999","TLE_LINE2":"2 53138  53.2191  88.8170 0002268  35.6358 324.4785 15.08843051 23163","OBJECT_NAME":"STARLINK-4141","SITE":"AFETR","OBJECT_ID":"2022-083G","ECCENTRICITY":"0.00022680","PERIOD":"95.437","TLE_LINE1":"1 53138U 22083G   22344.68350114  .00000295  00000-0  36627-4 0  9992","ARG_OF_PERICENTER":"35.6358","REV_AT_EPOCH":"2316","MEAN_ANOMALY":"324.4785","PERIAPSIS":"538.167","MEAN_ELEMENT_THEORY":"SGP4","FILE":"3688965","MEAN_MOTION_DOT":"0.00000295","NORAD_CAT_ID":"53138","SEMIMAJOR_AXIS":"6917.871","LAUNCH_DATE":"2022-07-17","TIME_SYSTEM":"UTC","REF_FRAME":"TEME","RA_OF_ASC_NODE":"88.8170","MEAN_MOTION":"15.08843051","DECAY_DATE":null,"INCLINATION":"53.2191","BSTAR":"0.00003662700000","CLASSIFICATION_TYPE":"U","GP_ID":"219979556"},{"GP_ID":"219952049","CLASSIFICATION_TYPE":"U","BSTAR":"-0.00001013900000","INCLINATION":"53.2165","DECAY_DATE":null,"TIME_SYSTEM":"UTC","LAUNCH_DATE":"2022-07-17","SEMIMAJOR_AXIS":"6917.887","MEAN_MOTION":"15.08837977","RA_OF_ASC_NODE":"93.1973","REF_FRAME":"TEME","MEAN_ANOMALY":"325.7683","PERIAPSIS":"537.984","REV_AT_EPOCH":"2297","FILE":"3688867","MEAN_MOTION_DOT":"-0.00000450","NORAD_CAT_ID":"53139","MEAN_ELEMENT_THEORY":"SGP4","ECCENTRICITY":"0.00025550","ARG_OF_PERICENTER":"34.3474","TLE_LINE1":"1 53139U 22083H   22344.82377535 -.00000450  00000-0 -10139-4 0  9990","PERIOD":"95.438","TLE_LINE2":"2 53139  53.2165  93.1973 0002555  34.3474 325.7683 15.08837977 22978","OBJECT_ID":"2022-083H","OBJECT_NAME":"STARLINK-4185","SITE":"AFETR","COUNTRY_CODE":"US","EPOCH":"2022-12-10T19:46:14.190240","ELEMENT_SET_NO":"999","MEAN_MOTION_DDOT":"0.0000000000000","APOAPSIS":"541.519","RCS_SIZE":"LARGE","OBJECT_TYPE":"PAYLOAD","EPHEMERIS_TYPE":"0","CENTER_NAME":"EARTH"},{"COUNTRY_CODE":"US","EPOCH":"2022-12-10T18:16:08.715936","ELEMENT_SET_NO":"999","MEAN_MOTION_DDOT":"0.0000000000000","APOAPSIS":"541.666","TLE_LINE2":"2 53140  53.2160  93.4785 0002804  41.7564 318.3642 15.08846320 22333","OBJECT_ID":"2022-083J","OBJECT_NAME":"STARLINK-4170","SITE":"AFETR","EPHEMERIS_TYPE":"0","CENTER_NAME":"EARTH","RCS_SIZE":"LARGE","OBJECT_TYPE":"PAYLOAD","TIME_SYSTEM":"UTC","LAUNCH_DATE":"2022-07-17","SEMIMAJOR_AXIS":"6917.861","RA_OF_ASC_NODE":"93.4785","MEAN_MOTION":"15.08846320","REF_FRAME":"TEME","GP_ID":"219979353","BSTAR":"0.00041680000000","CLASSIFICATION_TYPE":"U","INCLINATION":"53.2160","DECAY_DATE":null,"ECCENTRICITY":"0.00028040","ARG_OF_PERICENTER":"41.7564","PERIOD":"95.437","TLE_LINE1":"1 53140U 22083J   22344.76121199  .00006353  00000-0  41680-3 0  9998","MEAN_ANOMALY":"318.3642","PERIAPSIS":"537.786","REV_AT_EPOCH":"2233","FILE":"3688965","MEAN_MOTION_DOT":"0.00006353","NORAD_CAT_ID":"53140","MEAN_ELEMENT_THEORY":"SGP4"},{"TLE_LINE2":"2 53141  53.2184  93.8447 0002876  48.8172 311.3067 15.08836372 22320","OBJECT_ID":"2022-083K","SITE":"AFETR","OBJECT_NAME":"STARLINK-4103","COUNTRY_CODE":"US","EPOCH":"2022-12-10T16:14:15.467424","ELEMENT_SET_NO":"999","MEAN_MOTION_DDOT":"0.0000000000000","APOAPSIS":"541.746","RCS_SIZE":"LARGE","OBJECT_TYPE":"PAYLOAD","EPHEMERIS_TYPE":"0","CENTER_NAME":"EARTH","GP_ID":"219979966","CLASSIFICATION_TYPE":"U","BSTAR":"0.00000673280000","INCLINATION":"53.2184","DECAY_DATE":null,"TIME_SYSTEM":"UTC","LAUNCH_DATE":"2022-07-17","SEMIMAJOR_AXIS":"6917.891","RA_OF_ASC_NODE":"93.8447","MEAN_MOTION":"15.08836372","REF_FRAME":"TEME","MEAN_ANOMALY":"311.3067","PERIAPSIS":"537.767","REV_AT_EPOCH":"2232","FILE":"3688965","NORAD_CAT_ID":"53141","MEAN_MOTION_DOT":"-0.00000181","MEAN_ELEMENT_THEORY":"SGP4","ECCENTRICITY":"0.00028760","ARG_OF_PERICENTER":"48.8172","PERIOD":"95.438","TLE_LINE1":"1 53141U 22083K   22344.67656791 -.00000181  00000-0  67328-5 0  9993"}];
